[
    {
        "Altitude(m)": 611967.1776416177,
        "Argument of Periapsis(deg)": 0.0,
        "Eccentricity": 0.0,
        "Inclination(deg)": 60.0,
        "Latitude(deg)": 59.14015766428102,
        "Longitude(deg)": -173.90775557710563,
        "Mean Anomaly(deg)": 98.18179999999998,
        "RAAN(deg)": 180.0,
        "Satellite Name": "Test1 798",
        "Satellite Number": 798,
        "Semi-Major Axis(m)": 6980739.136638005,
        "Time(s)": 0
    },
    {
        "Altitude(m)": 611934.3767750324,
        "Argument of Periapsis(deg)": 0.00010418945913296404,
        "Eccentricity": 0.0,
        "Inclination(deg)": 60.0,
        "Latitude(deg)": 58.986517654978506,
        "Longitude(deg)": -172.78451114037586,
        "Mean Anomaly(deg)": 98.80190614546184,
        "RAAN(deg)": 179.99957995086024,
        "Satellite Name": "Test1 798",
        "Satellite Number": 798,
        "Semi-Major Axis(m)": 6980739.136638005,
        "Time(s)": 10
    },
    {
        "Altitude(m)": 611899.2712728314,
        "Argument of Periapsis(deg)": 0.0002083789182659281,
        "Eccentricity": 0.0,
        "Inclination(deg)": 60.0,
        "Latitude(deg)": 58.822499558572304,
        "Longitude(deg)": -171.67193215781327,
        "Mean Anomaly(deg)": 99.42201229092367,
        "RAAN(deg)": 179.99915990172053,
        "Satellite Name": "Test1 798",
        "Satellite Number": 798,
        "Semi-Major Axis(m)": 6980739.136638005,
        "Time(s)": 20
    },
    {
        "Altitude(m)": 611861.8813697069,
        "Argument of Periapsis(deg)": 0.00031256837739889213,
        "Eccentricity": 0.0,
        "Inclination(deg)": 60.0,
        "Latitude(deg)": 58.64826642625171,
        "Longitude(deg)": -170.57053041750441,
        "Mean Anomaly(deg)": 100.04211843638548,
        "RAAN(deg)": 179.99873985258077,
        "Satellite Name": "Test1 798",
        "Satellite Number": 798,
        "Semi-Major Axis(m)": 6980739.136638005,
        "Time(s)": 30
    },
    {
        "Altitude(m)": 611822.22862618,
        "Argument of Periapsis(deg)": 0.0004167578365318562,
        "Eccentricity": 0.0,
        "Inclination(deg)": 60.0,
        "Latitude(deg)": 58.463987758052994,
        "Longitude(deg)": -169.48077695856304,
        "Mean Anomaly(deg)": 100.6622245818473,
        "RAAN(deg)": 179.99831980344103,
        "Satellite Name": "Test1 798",
        "Satellite Number": 798,
        "Semi-Major Axis(m)": 6980739.136638005,
        "Time(s)": 40
    },
    {
        "Altitude(m)": 611780.3359183946,
        "Argument of Periapsis(deg)": 0.0005209472956648203,
        "Eccentricity": 0.0,
        "Inclination(deg)": 60.0,
        "Latitude(deg)": 58.26983878633972,
        "Longitude(deg)": -168.4031028475023,
        "Mean Anomaly(deg)": 101.28233072730914,
        "RAAN(deg)": 179.99789975430127,
        "Satellite Name": "Test1 798",
        "Satellite Number": 798,
        "Semi-Major Axis(m)": 6980739.136638005,
        "Time(s)": 50
    },
    {
        "Altitude(m)": 611736.2274273117,
        "Argument of Periapsis(deg)": 0.0006251367547977843,
        "Eccentricity": 0.0,
        "Inclination(deg)": 60.0,
        "Latitude(deg)": 58.06599976573829,
        "Longitude(deg)": -167.33789873173282,
        "Mean Anomaly(deg)": 101.90243687277098,
        "RAAN(deg)": 179.99747970516157,
        "Satellite Name": "Test1 798",
        "Satellite Number": 798,
        "Semi-Major Axis(m)": 6980739.136638005,
        "Time(s)": 60
    },
    {
        "Altitude(m)": 611689.9286272544,
        "Argument of Periapsis(deg)": 0.0007293262139307483,
        "Eccentricity": 0.0,
        "Inclination(deg)": 60.0,
        "Latitude(deg)": 57.85265527491484,
        "Longitude(deg)": -166.28551466282684,
        "Mean Anomaly(deg)": 102.52254301823278,
        "RAAN(deg)": 179.9970596560218,
        "Satellite Name": "Test1 798",
        "Satellite Number": 798,
        "Semi-Major Axis(m)": 6980739.136638005,
        "Time(s)": 70
    },
    {
        "Altitude(m)": 611641.4662738476,
        "Argument of Periapsis(deg)": 0.0008335156730637124,
        "Eccentricity": 0.0,
        "Inclination(deg)": 60.0,
        "Latitude(deg)": 57.629993535037194,
        "Longitude(deg)": -165.2462616800352,
        "Mean Anomaly(deg)": 103.1426491636946,
        "RAAN(deg)": 179.99663960688207,
        "Satellite Name": "Test1 798",
        "Satellite Number": 798,
        "Semi-Major Axis(m)": 6980739.136638005,
        "Time(s)": 80
    },
    {
        "Altitude(m)": 611590.8683913461,
        "Argument of Periapsis(deg)": 0.0009377051321966765,
        "Eccentricity": 0.0,
        "Inclination(deg)": 60.0,
        "Latitude(deg)": 57.39820574918829,
        "Longitude(deg)": -164.22041210438312,
        "Mean Anomaly(deg)": 103.76275530915647,
        "RAAN(deg)": 179.9962195577423,
        "Satellite Name": "Test1 798",
        "Satellite Number": 798,
        "Semi-Major Axis(m)": 6980739.136638005,
        "Time(s)": 90
    },
    {
        "Altitude(m)": 611538.1642593506,
        "Argument of Periapsis(deg)": 0.0010418945913296407,
        "Eccentricity": 0.0,
        "Inclination(deg)": 60.0,
        "Latitude(deg)": 57.1574854664192,
        "Longitude(deg)": -163.2082000313267,
        "Mean Anomaly(deg)": 104.3828614546183,
        "RAAN(deg)": 179.9957995086026,
        "Satellite Name": "Test1 798",
        "Satellite Number": 798,
        "Semi-Major Axis(m)": 6980739.136638005,
        "Time(s)": 100
    },
    {
        "Altitude(m)": 611483.3843989148,
        "Argument of Periapsis(deg)": 0.0011460840504626045,
        "Eccentricity": 0.0,
        "Inclination(deg)": 60.0,
        "Latitude(deg)": 56.908027973545266,
        "Longitude(deg)": -162.20982350954134,
        "Mean Anomaly(deg)": 105.00296760008014,
        "RAAN(deg)": 179.9953794594628,
        "Satellite Name": "Test1 798",
        "Satellite Number": 798,
        "Semi-Major Axis(m)": 6980739.136638005,
        "Time(s)": 110
    },
    {
        "Altitude(m)": 611426.5605580722,
        "Argument of Periapsis(deg)": 0.0012502735095955685,
        "Eccentricity": 0.0,
        "Inclination(deg)": 60.0,
        "Latitude(deg)": 56.650029717203545,
        "Longitude(deg)": -161.22544535486165,
        "Mean Anomaly(deg)": 105.62307374554199,
        "RAAN(deg)": 179.99495941032308,
        "Satellite Name": "Test1 798",
        "Satellite Number": 798,
        "Semi-Major Axis(m)": 6980739.136638005,
        "Time(s)": 120
    },
    {
        "Altitude(m)": 611367.7256967541,
        "Argument of Periapsis(deg)": 0.0013544629687285324,
        "Eccentricity": 0.0,
        "Inclination(deg)": 60.0,
        "Latitude(deg)": 56.38368775814275,
        "Longitude(deg)": -160.2551940875148,
        "Mean Anomaly(deg)": 106.24317989100376,
        "RAAN(deg)": 179.99453936118334,
        "Satellite Name": "Test1 798",
        "Satellite Number": 798,
        "Semi-Major Axis(m)": 6980739.136638005,
        "Time(s)": 130
    },
    {
        "Altitude(m)": 611306.9139711214,
        "Argument of Periapsis(deg)": 0.0014586524278614966,
        "Eccentricity": 0.0,
        "Inclination(deg)": 60.0,
        "Latitude(deg)": 56.10919925919105,
        "Longitude(deg)": -159.29916648165644,
        "Mean Anomaly(deg)": 106.8632860364656,
        "RAAN(deg)": 179.9941193120436,
        "Satellite Name": "Test1 798",
        "Satellite Number": 798,
        "Semi-Major Axis(m)": 6980739.136638005,
        "Time(s)": 140
    },
    {
        "Altitude(m)": 611244.1607173427,
        "Argument of Periapsis(deg)": 0.0015628418869944607,
        "Eccentricity": 0.0,
        "Inclination(deg)": 60.0,
        "Latitude(deg)": 55.82676100784698,
        "Longitude(deg)": -158.35742867877124,
        "Mean Anomaly(deg)": 107.48339218192746,
        "RAAN(deg)": 179.99369926290385,
        "Satellite Name": "Test1 798",
        "Satellite Number": 798,
        "Semi-Major Axis(m)": 6980739.136638005,
        "Time(s)": 150
    },
    {
        "Altitude(m)": 611179.5024347602,
        "Argument of Periapsis(deg)": 0.0016670313461274247,
        "Eccentricity": 0.0,
        "Inclination(deg)": 60.0,
        "Latitude(deg)": 55.5365689739971,
        "Longitude(deg)": -157.43001735652496,
        "Mean Anomaly(deg)": 108.10349832738929,
        "RAAN(deg)": 179.9932792137641,
        "Satellite Name": "Test1 798",
        "Satellite Number": 798,
        "Semi-Major Axis(m)": 6980739.136638005,
        "Time(s)": 160
    },
    {
        "Altitude(m)": 611112.9767685216,
        "Argument of Periapsis(deg)": 0.0017712208052603888,
        "Eccentricity": 0.0,
        "Inclination(deg)": 60.0,
        "Latitude(deg)": 55.23881790285562,
        "Longitude(deg)": -156.5169424462414,
        "Mean Anomaly(deg)": 108.7236044728511,
        "RAAN(deg)": 179.99285916462438,
        "Satellite Name": "Test1 798",
        "Satellite Number": 798,
        "Semi-Major Axis(m)": 6980739.136638005,
        "Time(s)": 170
    },
    {
        "Altitude(m)": 611044.6224916321,
        "Argument of Periapsis(deg)": 0.001875410264393353,
        "Eccentricity": 0.0,
        "Inclination(deg)": 60.0,
        "Latitude(deg)": 54.93370094285236,
        "Longitude(deg)": -155.61818835526728,
        "Mean Anomaly(deg)": 109.34371061831291,
        "RAAN(deg)": 179.99243911548464,
        "Satellite Name": "Test1 798",
        "Satellite Number": 798,
        "Semi-Major Axis(m)": 6980739.136638005,
        "Time(s)": 180
    },
    {
        "Altitude(m)": 610974.4794864752,
        "Argument of Periapsis(deg)": 0.0019795997235263173,
        "Eccentricity": 0.0,
        "Inclination(deg)": 60.0,
        "Latitude(deg)": 54.621409307887085,
        "Longitude(deg)": -154.73371519088377,
        "Mean Anomaly(deg)": 109.96381676377476,
        "RAAN(deg)": 179.99201906634488,
        "Satellite Name": "Test1 798",
        "Satellite Number": 798,
        "Semi-Major Axis(m)": 6980739.136638005,
        "Time(s)": 190
    }
]